OBJECT_NAME,OBJECT_ID,EPOCH,MEAN_MOTION,ECCENTRICITY,INCLINATION,RA_OF_ASC_NODE,ARG_OF_PERICENTER,MEAN_ANOMALY,EPHEMERIS_TYPE,CLASSIFICATION_TYPE,NORAD_CAT_ID,ELEMENT_SET_NO,REV_AT_EPOCH,BSTAR,MEAN_MOTION_DOT,MEAN_MOTION_DDOT
SL-12 R/B(2),1985-042D,2026-07-07T10:35:56.588352,14.22009761,.00371848,71.1060,194.7231,297.5899,227.1538,0,U,15772,999,13141,.74761661E-4,.119E-5,0
SL-14 R/B,1985-069B,2026-07-08T04:05:58.392672,14.86531829,.0019593,82.5268,271.6323,149.2608,210.9761,0,U,15945,999,19073,.33943E-4,.326E-5,0
SL-16 R/B,1985-097B,2026-07-08T03:51:36.384192,14.16613057,.0005359,71.0017,246.9228,65.5035,315.2817,0,U,16182,999,10429,-.10417E-3,-.256E-5,0
SL-14 R/B,1986-006B,2026-07-07T23:30:49.889376,14.86964346,.0074975,82.5277,146.5466,233.1385,126.2944,0,U,16496,999,16708,.36427E-4,.369E-5,0
COSMOS 1743,1986-034A,2026-07-07T19:47:57.896160,15.68997148,.0005088,82.5276,306.7589,200.2234,159.8826,0,U,16719,999,19902,.3365E-3,.38911E-3,0
SL-14 R/B,1986-046B,2026-07-07T21:31:42.373344,14.85686604,.002287,82.4833,326.6056,186.9809,173.1093,0,U,16792,999,14425,.37253E-4,.349E-5,0
SL-14 R/B,1986-055B,2026-07-07T23:10:47.959104,14.85736909,.0017458,82.5198,13.5943,296.3719,177.9101,0,U,16882,999,13722,.31765E-4,.3E-5,0
AJISAI (EGS),1986-061A,2026-07-08T04:47:19.163040,12.44516682,.0011108,50.0097,82.7831,234.0284,301.4733,0,U,16908,999,48300,-.61349E-4,-.106E-5,0
SL-14 R/B,1987-024B,2026-07-07T21:16:53.027040,14.86227861,.0017233,82.5291,339.7927,218.9476,141.0500,0,U,17567,999,10598,.3676E-4,.348E-5,0
COSMOS 1833,1987-027A,2026-07-08T03:11:07.643904,14.13064100,.002375,70.9211,72.8446,20.2178,339.9878,0,U,17589,999,2733,.11288E-3,.163E-5,0
SL-16 R/B,1987-027B,2026-07-07T23:13:42.030048,14.17174180,.000712,71.0030,23.0372,289.5555,70.4800,0,U,17590,999,3238,-.90785E-4,-.231E-5,0
SL-14 R/B,1987-038B,2026-07-07T22:38:45.572064,14.85458035,.0020589,82.5005,183.5202,124.5438,235.7725,0,U,17912,999,9708,.32463E-4,.305E-5,0
COSMOS 1844,1987-041A,2026-07-07T23:13:28.669152,14.14576766,.0031772,70.8989,140.4739,205.4773,154.4784,0,U,17973,999,2059,.18832E-3,.315E-5,0
SL-14 R/B,1987-055B,2026-07-08T02:25:53.039712,14.85724086,.0019959,82.4976,235.5136,339.6035,20.4381,0,U,18153,999,8781,.25166E-4,.243E-5,0
COSMOS 1867,1987-060A,2026-07-07T17:48:44.854848,14.31517975,.001698,65.0119,330.4921,282.0905,77.8277,0,U,18187,999,3712,.24414E-4,-.35E-6,0
SL-14 R/B,1988-001B,2026-07-08T02:30:55.812960,14.85623630,.0017514,82.5129,82.0947,195.4203,164.6482,0,U,18749,999,5990,.28449E-4,.271E-5,0
COSMOS 1933,1988-020A,2026-07-07T23:43:46.601184,15.18856045,.0005622,82.5133,131.8347,125.8437,234.3321,0,U,18958,999,6848,.13536E-3,.2852E-4,0
SL-3 R/B,1988-032B,2026-07-08T05:32:18.917664,15.20996687,.002579,97.5268,172.2530,169.2955,190.8834,0,U,19046,999,7042,.12226E-3,.2662E-4,0
SL-16 R/B,1988-039B,2026-07-07T23:27:47.805696,14.19632123,.0021015,71.0131,174.1961,160.9076,199.2841,0,U,19120,999,97545,.25328E-4,.6E-7,0
COSMOS 1953,1988-050A,2026-07-08T00:15:53.939808,15.30267526,.0012084,82.5066,37.0293,62.7743,297.4727,0,U,19210,999,5617,.13924E-3,.4118E-4,0
SL-8 R/B,1988-053B,2026-07-08T03:16:19.180704,14.38975842,.0019497,74.0465,250.4415,38.2731,2.2445,0,U,19257,999,99392,.5075E-4,.131E-5,0
COSMOS 1975,1988-093A,2026-07-07T23:01:32.509056,15.29602341,.0012561,82.5197,356.8017,104.9202,255.3430,0,U,19573,999,3778,.14249E-3,.413E-4,0
SL-14 R/B,1988-093B,2026-07-07T19:54:43.429248,14.85756750,.0020669,82.5319,289.2660,4.9985,141.0861,0,U,19574,999,1885,.30475E-4,.29E-5,0
SL-16 R/B,1988-102B,2026-07-08T02:59:51.546624,14.16168886,.0014683,70.9992,258.0843,196.4372,163.6277,0,U,19650,999,94394,-.88809E-4,-.224E-5,0
INTERCOSMOS 24,1989-080A,2026-07-07T23:35:42.063936,12.59688293,.1187577,82.6046,26.1102,13.6838,349.3673,0,U,20261,999,68194,.11637E-3,.413E-5,0
SL-14 R/B,1989-080C,2026-07-08T02:55:56.313120,12.50577483,.1228465,82.5942,95.8574,269.4785,76.5781,0,U,20262,999,67520,.21722E-4,.73E-6,0
DELTA 1 R/B,1989-089B,2026-07-07T23:31:14.739744,14.50744631,.0070573,97.0635,17.2107,102.2542,258.6571,0,U,20323,999,91317,.63426E-4,.223E-5,0
ARIANE 40 R/B,1990-005H,2026-07-08T02:23:24.300384,14.39938397,.0009779,98.2948,246.0644,195.2749,164.8146,0,U,20443,999,91013,.63805E-4,.159E-5,0
DELTA 2 R/B(1),1990-008B,2026-07-08T02:29:16.915200,15.72469281,.0062299,35.6001,95.3712,309.6851,49.8408,0,U,20453,999,94499,.50214E-3,.79001E-3,0
COSMOS 2058,1990-010A,2026-07-07T18:46:38.578080,15.12133909,.0007977,82.4676,289.0447,281.6968,78.3367,0,U,20465,999,96038,.10174E-3,.1783E-4,0
SL-14 R/B,1990-010B,2026-07-07T22:33:56.674656,14.83659938,.0018157,82.5028,154.4549,263.1199,96.7951,0,U,20466,999,94631,.329E-4,.296E-5,0
