SL-12 R/B(2)            
1 15772U 85042D   26188.44162718  .00000119  00000+0  74762-4 0  9999
2 15772  71.1060 194.7231 0037184 297.5899 227.1538 14.22009761131418
SL-14 R/B               
1 15945U 85069B   26189.17081473  .00000326  00000+0  33943-4 0  9995
2 15945  82.5268 271.6323 0019593 149.2608 210.9761 14.86531829190731
SL-16 R/B               
1 16182U 85097B   26189.16083778 -.00000256  00000+0 -10417-3 0  9993
2 16182  71.0017 246.9228 0005359  65.5035 315.2817 14.16613057104292
SL-14 R/B               
1 16496U 86006B   26188.97974409  .00000369  00000+0  36427-4 0  9993
2 16496  82.5277 146.5466 0074975 233.1385 126.2944 14.86964346167089
COSMOS 1743             
1 16719U 86034A   26188.82497565  .00038911  00000+0  33650-3 0  9997
2 16719  82.5276 306.7589 0005088 200.2234 159.8826 15.68997148199026
SL-14 R/B               
1 16792U 86046B   26188.89701821  .00000349  00000+0  37253-4 0  9999
2 16792  82.4833 326.6056 0022870 186.9809 173.1093 14.85686604144251
SL-14 R/B               
1 16882U 86055B   26188.96583286  .00000300  00000+0  31765-4 0  9999
2 16882  82.5198  13.5943 0017458 296.3719 177.9101 14.85736909137220
AJISAI (EGS)            
1 16908U 86061A   26189.19952735 -.00000106  00000+0 -61349-4 0  9997
2 16908  50.0097  82.7831 0011108 234.0284 301.4733 12.44516682483005
SL-14 R/B               
1 17567U 87024B   26188.88672485  .00000348  00000+0  36760-4 0  9990
2 17567  82.5291 339.7927 0017233 218.9476 141.0500 14.86227861105987
COSMOS 1833             
1 17589U 87027A   26189.13272736  .00000163  00000+0  11288-3 0  9993
2 17589  70.9211  72.8446 0023750  20.2178 339.9878 14.13064100 27332
SL-16 R/B               
1 17590U 87027B   26188.96784757 -.00000231  00000+0 -90785-4 0  9994
2 17590  71.0030  23.0372 0007120 289.5555  70.4800 14.17174180 32380
SL-14 R/B               
1 17912U 87038B   26188.94358301  .00000305  00000+0  32463-4 0  9993
2 17912  82.5005 183.5202 0020589 124.5438 235.7725 14.85458035 97082
COSMOS 1844             
1 17973U 87041A   26188.96769293  .00000315  00000+0  18832-3 0  9996
2 17973  70.8989 140.4739 0031772 205.4773 154.4784 14.14576766 20592
SL-14 R/B               
1 18153U 87055B   26189.10130833  .00000243  00000+0  25166-4 0  9990
2 18153  82.4976 235.5136 0019959 339.6035  20.4381 14.85724086 87810
COSMOS 1867             
1 18187U 87060A   26188.74218582 -.00000035  00000+0  24414-4 0  9995
2 18187  65.0119 330.4921 0016980 282.0905  77.8277 14.31517975 37125
SL-14 R/B               
1 18749U 88001B   26189.10481265  .00000271  00000+0  28449-4 0  9999
2 18749  82.5129  82.0947 0017514 195.4203 164.6482 14.85623630 59902
COSMOS 1933             
1 18958U 88020A   26188.98873381  .00002852  00000+0  13536-3 0  9998
2 18958  82.5133 131.8347 0005622 125.8437 234.3321 15.18856045 68484
SL-3 R/B                
1 19046U 88032B   26189.23077451  .00002662  00000+0  12226-3 0  9997
2 19046  97.5268 172.2530 0025790 169.2955 190.8834 15.20996687 70428
SL-16 R/B               
1 19120U 88039B   26188.97763664  .00000006  00000+0  25328-4 0  9993
2 19120  71.0131 174.1961 0021015 160.9076 199.2841 14.19632123975451
COSMOS 1953             
1 19210U 88050A   26189.01104097  .00004118  00000+0  13924-3 0  9997
2 19210  82.5066  37.0293 0012084  62.7743 297.4727 15.30267526 56174
SL-8 R/B                
1 19257U 88053B   26189.13633311  .00000131  00000+0  50750-4 0  9990
2 19257  74.0465 250.4415 0019497  38.2731   2.2445 14.38975842993927
COSMOS 1975             
1 19573U 88093A   26188.95940404  .00004130  00000+0  14249-3 0  9993
2 19573  82.5197 356.8017 0012561 104.9202 255.3430 15.29602341 37782
SL-14 R/B               
1 19574U 88093B   26188.82966932  .00000290  00000+0  30475-4 0  9997
2 19574  82.5319 289.2660 0020669   4.9985 141.0861 14.85756750 18858
SL-16 R/B               
1 19650U 88102B   26189.12490216 -.00000224  00000+0 -88809-4 0  9997
2 19650  70.9992 258.0843 0014683 196.4372 163.6277 14.16168886943943
INTERCOSMOS 24          
1 20261U 89080A   26188.98312574  .00000413  00000+0  11637-3 0  9998
2 20261  82.6046  26.1102 1187577  13.6838 349.3673 12.59688293681942
SL-14 R/B               
1 20262U 89080C   26189.12217955  .00000073  00000+0  21722-4 0  9992
2 20262  82.5942  95.8574 1228465 269.4785  76.5781 12.50577483675207
DELTA 1 R/B             
1 20323U 89089B   26188.98003171  .00000223  00000+0  63426-4 0  9999
2 20323  97.0635  17.2107 0070573 102.2542 258.6571 14.50744631913178
ARIANE 40 R/B           
1 20443U 90005H   26189.09958681  .00000159  00000+0  63805-4 0  9999
2 20443  98.2948 246.0644 0009779 195.2749 164.8146 14.39938397910130
DELTA 2 R/B(1)          
1 20453U 90008B   26189.10366800  .00079001  00000+0  50214-3 0  9992
2 20453  35.6001  95.3712 0062299 309.6851  49.8408 15.72469281944991
COSMOS 2058             
1 20465U 90010A   26188.78239095  .00001783  00000+0  10174-3 0  9999
2 20465  82.4676 289.0447 0007977 281.6968  78.3367 15.12133909960380
SL-14 R/B               
1 20466U 90010B   26188.94023929  .00000296  00000+0  32900-4 0  9995
2 20466  82.5028 154.4549 0018157 263.1199  96.7951 14.83659938946316
